[{"OBJECT_NAME":"TEVEL2-1","OBJECT_ID":"2025-052H","EPOCH":"2026-03-09T15:32:51.927072","MEAN_MOTION":15.30341923,"ECCENTRICITY":0.0004767,"INCLINATION":97.3991,"RA_OF_ASC_NODE":324.7682,"ARG_OF_PERICENTER":104.8919,"MEAN_ANOMALY":255.2849,"EPHEMERIS_TYPE":0,"CLASSIFICATION_TYPE":"U","NORAD_CAT_ID":63217,"ELEMENT_SET_NO":999,"REV_AT_EPOCH":5485,"BSTAR":0.000706,"MEAN_MOTION_DOT":0.00020683,"MEAN_MOTION_DDOT":0},{"OBJECT_NAME":"STARLINK-33802","OBJECT_ID":"2025-127Y","EPOCH":"2026-03-09T07:12:03.617568","MEAN_MOTION":15.27567178,"ECCENTRICITY":0.00022923,"INCLINATION":43.005,"RA_OF_ASC_NODE":182.3191,"ARG_OF_PERICENTER":253.0323,"MEAN_ANOMALY":107.0277,"EPHEMERIS_TYPE":0,"CLASSIFICATION_TYPE":"U","NORAD_CAT_ID":64392,"ELEMENT_SET_NO":999,"REV_AT_EPOCH":4245,"BSTAR":0.00061841549,"MEAN_MOTION_DOT":0.00016788,"MEAN_MOTION_DDOT":0}]
